[{"OBJECT_NAME":"UTMN 2 (RS27S)","OBJECT_ID":"2023-091AP","EPOCH":"2026-03-09T23:09:07.917408","MEAN_MOTION":15.29495965,"ECCENTRICITY":0.00097379,"INCLINATION":97.5194,"RA_OF_ASC_NODE":134.949,"ARG_OF_PERICENTER":76.0788,"MEAN_ANOMALY":284.1534,"EPHEMERIS_TYPE":0,"CLASSIFICATION_TYPE":"U","NORAD_CAT_ID":57203,"ELEMENT_SET_NO":999,"REV_AT_EPOCH":14936,"BSTAR":0.00056135701,"MEAN_MOTION_DOT":0.00016013,"MEAN_MOTION_DDOT":0},{"OBJECT_NAME":"STARLINK-36427","OBJECT_ID":"2026-002AE","EPOCH":"2026-03-08T17:52:19.944192","MEAN_MOTION":15.2758496,"ECCENTRICITY":4.265e-5,"INCLINATION":42.9939,"RA_OF_ASC_NODE":330.6507,"ARG_OF_PERICENTER":294.3069,"MEAN_ANOMALY":65.7738,"EPHEMERIS_TYPE":0,"CLASSIFICATION_TYPE":"U","NORAD_CAT_ID":67333,"ELEMENT_SET_NO":999,"REV_AT_EPOCH":1099,"BSTAR":0.0012747018,"MEAN_MOTION_DOT":0.00034987,"MEAN_MOTION_DDOT":0}]
